STARLINK-2211_new
1 17778C 21017BJ  21326.12570587  .00000581  00000-0  38930-4 0  3268
2 17778  53.0299  53.2971 0001366  80.2859 331.6065 15.06406884    15
STARLINK-2211_old
1 27778C 21017BJ  21325.13003556  .00006608  00000-0  44280-3 0  3254
2 27778  53.0297  57.7693 0001386  83.2682 326.0841 15.06387948    11
